OBJECT_NAME,OBJECT_ID,EPOCH,MEAN_MOTION,ECCENTRICITY,INCLINATION,RA_OF_ASC_NODE,ARG_OF_PERICENTER,MEAN_ANOMALY,EPHEMERIS_TYPE,CLASSIFICATION_TYPE,NORAD_CAT_ID,ELEMENT_SET_NO,REV_AT_EPOCH,BSTAR,MEAN_MOTION_DOT,MEAN_MOTION_DDOT
STARLINK-37794,2026-119Q,2026-06-13T22:00:01.999584,15.76770303,.00015906,97.2832,190.5964,65.8513,353.0547,0,U,69310,999,352,-.18174067E-1,-.2488363E-1,0
STARLINK-37795,2026-119R,2026-06-13T22:00:01.999584,15.61120382,.00015934,97.2844,190.5409,85.0601,208.6607,0,U,69311,999,352,-.1997909E-1,-.150208E-1,0
STARLINK-37790,2026-119S,2026-06-13T20:10:46.705440,15.80854806,.00013484,97.2825,190.5206,85.9989,274.1434,0,U,69312,999,351,.47270327E-3,.9152E-3,0
STARLINK-37676,2026-119T,2026-06-13T20:07:51.834432,15.80879412,.00016691,97.2825,190.5230,78.8893,281.2563,0,U,69313,999,351,.81327449E-3,.158971E-2,0
STARLINK-37617,2026-119U,2026-06-13T23:08:54.580704,15.80906797,.00013497,97.2821,190.6576,86.2340,273.9083,0,U,69314,999,353,.95621942E-3,.187792E-2,0
STARLINK-37627,2026-119V,2026-06-13T20:06:08.726400,15.80901867,.00014715,97.2824,190.5248,93.4092,266.7345,0,U,69315,999,351,.70269638E-3,.137131E-2,0
STARLINK-37738,2026-119W,2026-06-13T20:09:23.039136,15.80891849,.00013574,97.2820,190.5213,89.8690,270.2733,0,U,69316,999,351,.9345607E-3,.183315E-2,0
STARLINK-37799,2026-119X,2026-06-13T20:07:10.468704,15.80861571,.00012979,97.2823,190.5234,84.6775,275.4641,0,U,69317,999,226,.43978797E-3,.85101E-3,0
STARLINK-37802,2026-119Y,2026-06-13T21:35:24.904320,15.80885817,.00016435,97.2820,190.5937,102.2675,257.8778,0,U,69318,999,352,.98247906E-3,.192884E-2,0
STARLINK-37803,2026-119Z,2026-06-13T22:00:01.999584,15.74940426,.00016994,97.2837,190.6055,70.1106,10.2864,0,U,69319,999,347,-.19888145E-1,-.2507936E-1,0
GUOWANG TEST OBJECT A,2026-120A,2026-06-07T11:06:12.288672,15.38803685,.00095994,54.9967,71.5399,294.3963,65.6063,0,U,69320,999,119,.24095813E-3,.9002E-4,0
GUOWANG TEST OBJECT B,2026-120B,2026-06-13T22:56:01.308480,15.38648246,.00097098,54.9986,42.2825,321.3821,38.6512,0,U,69321,999,219,.34613917E-3,.13043E-3,0
GUOWANG TEST OBJECT C,2026-120C,2026-06-07T21:56:00.773376,15.39284097,.00098504,54.9968,69.4792,309.3319,50.6835,0,U,69322,999,126,.41735581E-3,.16153E-3,0
GUOWANG TEST OBJECT D,2026-120D,2026-06-13T18:10:26.410368,15.38963400,.00107274,54.9976,43.1373,333.1315,26.9156,0,U,69323,999,216,.1239695E-3,.4463E-4,0
QIANFAN-163,2026-121A,2026-06-07T22:57:09.243936,13.60351284,.00192,89.0167,301.4498,214.2671,145.7248,0,U,69325,999,90,.25988E-4,.32E-6,0
QIANFAN-164,2026-121B,2026-06-11T09:53:52.001952,13.60355109,.0019383,89.0157,301.0998,205.3125,154.7084,0,U,69326,999,137,.13228E-3,.112E-5,0
SZ-22 MODULE,2025-272C,2026-06-13T18:47:42.089856,15.60088365,.00066118,41.4809,342.8006,57.2068,302.9407,0,U,69328,999,279,.25736494E-3,.21216E-3,0
STARLINK-37733,2026-122A,2026-06-13T22:00:01.999584,15.80799307,.00006963,97.2841,194.1687,82.4188,172.9086,0,U,69329,999,282,.2301919E-3,.44139E-3,0
STARLINK-37772,2026-122B,2026-06-13T22:00:01.999584,15.80797359,.00012745,97.2835,194.1816,83.0555,202.1115,0,U,69330,999,277,.25841924E-3,.49597E-3,0
STARLINK-37768,2026-122C,2026-06-13T22:00:01.999584,15.80796959,.00010157,97.2834,194.1849,96.0082,198.6010,0,U,69331,999,277,.22031816E-3,.42226E-3,0
STARLINK-37833,2026-122D,2026-06-13T22:00:01.999584,15.80798762,.00011056,97.2831,194.1870,92.3398,205.0589,0,U,69332,999,277,.12286292E-3,.23436E-3,0
STARLINK-37818,2026-122E,2026-06-13T22:00:01.999584,15.80792272,.00011818,97.2831,194.1831,88.5500,197.8237,0,U,69333,999,282,.35348685E-3,.68023E-3,0
STARLINK-37868,2026-122F,2026-06-13T22:00:01.999584,15.82510438,.00011697,97.2822,194.1986,84.0943,242.4501,0,U,69334,999,282,-.62075623E-2,-.1150763E-1,0
STARLINK-37877,2026-122G,2026-06-13T22:00:01.999584,15.82504197,.00012868,97.2822,194.1987,76.8031,250.4803,0,U,69335,999,282,-.62444259E-2,-.1156639E-1,0
STARLINK-37791,2026-122H,2026-06-13T22:00:01.999584,15.84003590,.00013463,97.2822,194.2022,73.1732,261.4531,0,U,69336,999,282,-.12119866E-1,-.2341006E-1,0
STARLINK-37765,2026-122J,2026-06-13T22:00:01.999584,15.80786486,.00007556,97.2829,194.2047,71.9310,268.3526,0,U,69337,999,287,.88461604E-4,.16812E-3,0
STARLINK-37788,2026-122K,2026-06-13T22:00:01.999584,15.80745978,.00014634,97.2834,194.2084,84.3127,259.9454,0,U,69338,999,282,.67849546E-3,.131377E-2,0
STARLINK-37743,2026-122L,2026-06-13T22:00:01.999584,15.80779024,.00014395,97.2831,194.2009,92.0779,238.8398,0,U,69339,999,282,.39647998E-3,.76341E-3,0
STARLINK-37780,2026-122M,2026-06-13T22:00:01.999584,15.80788166,.0001113,97.2833,194.2033,86.7510,249.7063,0,U,69340,999,287,.31326311E-3,.602E-3,0
