STARLINK-37794          
1 69310U 26119Q   26164.91668981 -.02488363  00000+0 -18174-1 0  9992
2 69310  97.2832 190.5964 0001590  65.8513 353.0547 15.76770303  3525
STARLINK-37795          
1 69311U 26119R   26164.91668981 -.01502080  00000+0 -19979-1 0  9999
2 69311  97.2844 190.5409 0001593  85.0601 208.6607 15.61120382  3520
STARLINK-37790          
1 69312U 26119S   26164.84081835  .00091520  00000+0  47270-3 0  9995
2 69312  97.2825 190.5206 0001348  85.9989 274.1434 15.80854806  3512
STARLINK-37676          
1 69313U 26119T   26164.83879438  .00158971  00000+0  81327-3 0  9994
2 69313  97.2825 190.5230 0001669  78.8893 281.2563 15.80879412  3513
STARLINK-37617          
1 69314U 26119U   26164.96452061  .00187792  00000+0  95622-3 0  9994
2 69314  97.2821 190.6576 0001349  86.2340 273.9083 15.80906797  3533
STARLINK-37627          
1 69315U 26119V   26164.83760100  .00137131  00000+0  70270-3 0  9991
2 69315  97.2824 190.5248 0001471  93.4092 266.7345 15.80901867  3514
STARLINK-37738          
1 69316U 26119W   26164.83984999  .00183315  00000+0  93456-3 0  9992
2 69316  97.2820 190.5213 0001357  89.8690 270.2733 15.80891849  3518
STARLINK-37799          
1 69317U 26119X   26164.83831561  .00085101  00000+0  43979-3 0  9998
2 69317  97.2823 190.5234 0001297  84.6775 275.4641 15.80861571  2260
STARLINK-37802          
1 69318U 26119Y   26164.89959380  .00192884  00000+0  98248-3 0  9991
2 69318  97.2820 190.5937 0001643 102.2675 257.8778 15.80885817  3523
STARLINK-37803          
1 69319U 26119Z   26164.91668981 -.02507936  00000+0 -19888-1 0  9992
2 69319  97.2837 190.6055 0001699  70.1106  10.2864 15.74940426  3479
GUOWANG TEST OBJECT A   
1 69320U 26120A   26158.46264223  .00009002  00000+0  24096-3 0  9996
2 69320  54.9967  71.5399 0009599 294.3963  65.6063 15.38803685  1198
GUOWANG TEST OBJECT B   
1 69321U 26120B   26164.95557070  .00013043  00000+0  34614-3 0  9990
2 69321  54.9986  42.2825 0009709 321.3821  38.6512 15.38648246  2196
GUOWANG TEST OBJECT C   
1 69322U 26120C   26158.91389784  .00016153  00000+0  41736-3 0  9993
2 69322  54.9968  69.4792 0009850 309.3319  50.6835 15.39284097  1266
GUOWANG TEST OBJECT D   
1 69323U 26120D   26164.75725012  .00004463  00000+0  12397-3 0  9993
2 69323  54.9976  43.1373 0010727 333.1315  26.9156 15.38963400  2169
QIANFAN-163             
1 69325U 26121A   26158.95635699  .00000032  00000+0  25988-4 0  9991
2 69325  89.0167 301.4498 0019200 214.2671 145.7248 13.60351284   905
QIANFAN-164             
1 69326U 26121B   26162.41240743  .00000112  00000+0  13228-3 0  9992
2 69326  89.0157 301.0998 0019383 205.3125 154.7084 13.60355109  1373
SZ-22 MODULE            
1 69328U 25272C   26164.78312604  .00021216  00000+0  25736-3 0  9993
2 69328  41.4809 342.8006 0006611  57.2068 302.9407 15.60088365  2796
STARLINK-37733          
1 69329U 26122A   26164.91668981  .00044139  00000+0  23019-3 0  9997
2 69329  97.2841 194.1687 0000696  82.4188 172.9086 15.80799307  2824
STARLINK-37772          
1 69330U 26122B   26164.91668981  .00049597  00000+0  25842-3 0  9998
2 69330  97.2835 194.1816 0001274  83.0555 202.1115 15.80797359  2779
STARLINK-37768          
1 69331U 26122C   26164.91668981  .00042226  00000+0  22032-3 0  9999
2 69331  97.2834 194.1849 0001015  96.0082 198.6010 15.80796959  2775
STARLINK-37833          
1 69332U 26122D   26164.91668981  .00023436  00000+0  12286-3 0  9992
2 69332  97.2831 194.1870 0001105  92.3398 205.0589 15.80798762  2774
STARLINK-37818          
1 69333U 26122E   26164.91668981  .00068023  00000+0  35349-3 0  9999
2 69333  97.2831 194.1831 0001181  88.5500 197.8237 15.80792272  2822
STARLINK-37868          
1 69334U 26122F   26164.91668981 -.01150763  00000+0 -62076-2 0  9992
2 69334  97.2822 194.1986 0001169  84.0943 242.4501 15.82510438  2827
STARLINK-37877          
1 69335U 26122G   26164.91668981 -.01156639  00000+0 -62444-2 0  9990
2 69335  97.2822 194.1987 0001286  76.8031 250.4803 15.82504197  2825
STARLINK-37791          
1 69336U 26122H   26164.91668981 -.02341006  00000+0 -12120-1 0  9991
2 69336  97.2822 194.2022 0001346  73.1732 261.4531 15.84003590  2825
STARLINK-37765          
1 69337U 26122J   26164.91668981  .00016812  00000+0  88462-4 0  9997
2 69337  97.2829 194.2047 0000755  71.9310 268.3526 15.80786486  2874
STARLINK-37788          
1 69338U 26122K   26164.91668981  .00131377  00000+0  67850-3 0  9999
2 69338  97.2834 194.2084 0001463  84.3127 259.9454 15.80745978  2825
STARLINK-37743          
1 69339U 26122L   26164.91668981  .00076341  00000+0  39648-3 0  9993
2 69339  97.2831 194.2009 0001439  92.0779 238.8398 15.80779024  2824
STARLINK-37780          
1 69340U 26122M   26164.91668981  .00060200  00000+0  31326-3 0  9997
2 69340  97.2833 194.2033 0001113  86.7510 249.7063 15.80788166  2879
